FOX-1B (AO-91)
1 43017U 17073E   26191.42349500  .00004588  00000-0  20168-3 0  9994
2 43017  97.4686  58.1651 0148014 248.1091 110.4347 15.13024016468906
CANX-2
1 32790U 08021H   26191.41480104  .00002555  00000-0  18070-3 0  9999
2 32790  97.8654 171.6476 0009255 335.2716  24.8065 15.05787205988305
AIST-2 (RS-43)
1 39133U 13015D   26191.58092341  .00003536  00000-0  14232-3 0  9992
2 39133  64.8671 180.8225 0017217 248.4887 111.4408 15.26531726727472
NANOSATC-BR1
1 40024U 14033Q   26191.06847893  .00012417  00000-0  40165-3 0  9999
2 40024  98.0721 225.4947 0005300 109.2883 250.8931 15.32216392657483
FUNCUBE-3 (EO-79)/QB50P1
1 40025U 14033R   26191.28050615  .00005444  00000-0  26647-3 0  9993
2 40025  98.0969 204.0508 0010056 139.1601 221.0386 15.18618170656531
QB50P2
1 40032U 14033Y   26190.81602461  .00005365  00000-0  28728-3 0  9995
2 40032  98.0761 189.1099 0009315  98.7744 261.4542 15.15461423656098
PERSEUS-M2
1 40037U 14033AD  26191.61421831  .00001140  00000-0  10816-3 0  9995
2 40037  97.9965 142.6329 0010651 215.3946 144.6568 14.95578085654282
PERSEUS-M1
1 40039U 14033AF  26191.58530650  .00001229  00000-0  11578-3 0  9997
2 40039  97.9649 136.1031 0010660 213.1165 146.9389 14.95703980654134
POLYITAN-1
1 40042U 14033AJ  26190.95327591  .00014547  00000-0  44288-3 0  9990
2 40042  98.0944 219.3802 0008249  79.7810 280.4361 15.34091428657083
TIGRISAT
1 40043U 14033AK  26191.35917519  .00001004  00000-0  12097-3 0  9998
2 40043  97.7857 340.8441 0049055   0.2988 359.8248 14.85241074649060
UKUBE-1
1 40074U 14037F   26190.77553352  .00005644  00000-0  31609-3 0  9996
2 40074  98.4244 196.4263 0003240  97.6551 262.5046 15.13896142651974
DEORBITSAIL
1 40719U 15032E   26191.04383122  .00004429  00000-0  32271-3 0  9991
2 40719  97.5878  47.4422 0013598 150.3460 209.8540 15.04182473594680
HORYU-IV
1 41340U 16012D   26182.79199294  .04204222 -38650-5  11151-2 0  9996
2 41340  30.9791 330.1929 0008660 346.1826  13.8606 16.27112331573163
D-SAT
1 42794U 17036AF  26190.65392469  .00005338  00000-0  24799-3 0  9998
2 42794  97.5567 169.5114 0083150  84.1363 276.9341 15.17339053494260
CORVUS-BC2
1 42846U 17042X   26191.31136565  .00002103  00000-0  14633-3 0  9993
2 42846  97.4090 351.7667 0013871  39.1681 321.0548 15.06442373490548
CORVUS-BC1
1 42847U 17042Y   26191.30341983  .00001819  00000-0  12668-3 0  9994
2 42847  97.4120 352.5882 0012126  17.6704 342.4943 15.06606706490571
APRIZESAT-5
1 37792U 11044E   26189.76089673  .00000678  00000-0  92979-4 0  9991
2 37792  98.2450 123.4135 0050828 293.9839  65.6055 14.81120449801980
APRIZESAT-6
1 37793U 11044F   26191.59868265  .00000450  00000-0  70839-4 0  9997
2 37793  98.2344 102.5747 0043435  12.9073 106.0376 14.76952502800606
APRIZESAT-7
1 39416U 13066A   26191.29805834  .00000788  00000-0  83185-4 0  9999
2 39416  97.7720 144.1876 0036893 133.0204 227.4116 14.91612963684676
APRIZESAT-8
1 39425U 13066K   26191.27908036  .00000504  00000-0  60493-4 0  9998
2 39425  97.8227 138.4264 0045090 208.2637 151.6132 14.87691705683109
BUGSAT-1 (TITA)
1 40014U 14033E   26191.60427431  .00004830  00000-0  25386-3 0  9998
2 40014  98.0426 285.5263 0029010 100.8386 259.6112 15.15852952659389
SAUDISAT-4
1 40016U 14033G   26190.63924046  .00000355  00000-0  53590-4 0  9993
2 40016  97.7610 336.0009 0044729   2.2228 357.9175 14.79571960649393
TABLETSAT-AURORA
1 40017U 14033H   26191.56482841  .00004486  00000-0  22452-3 0  9990
2 40017  98.0235 267.0871 0012562 131.9124 228.3182 15.17910246658752
APRIZESAT-9
1 40018U 14033J   26190.60588905  .00000477  00000-0  77298-4 0  9998
2 40018  97.9087 323.2598 0067246 127.5578 233.1765 14.74247790646869
APRIZESAT-10
1 40019U 14033K   26190.30352681  .00000426  00000-0  74622-4 0  9998
2 40019  97.9675 316.7729 0078261 202.2274 157.5534 14.70906398645504
AISAT
1 40054U 14034B   26191.57032300  .00007091  00000-0  44904-3 0  9995
2 40054  98.2371 105.6871 0010445 135.6364 224.5701 15.09276692650734
COSMOS-2407 [+]
1 28380U 04028A   26191.06026775  .00000035  00000-0  20085-4 0  9994
2 28380  82.9590  57.8915 0038948 186.4467 342.6114 13.76336291103027
COSMOS-2414 [+]
1 28521U 05002A   26190.52449489  .00000051  00000-0  29497-4 0  9999
2 28521  82.9485  26.7460 0038669 265.6178  94.0566 13.87927839 86919
COSMOS-2463 [+]
1 36519U 10017A   26190.52262215  .00000040  00000-0  27257-4 0  9997
2 36519  82.9586 233.2956 0037504  69.1372  47.9797 13.71666973810990
NOAA-15
1 25338U 98030A   26191.60239046  .00000072  00000-0  46973-4 0  9992
2 25338  98.5063 211.6019 0009009 280.1413  79.8752 14.27153489464636
NOAA-18
1 28654U 05018A   26191.61913961  .00000006  00000-0  26310-4 0  9996
2 28654  98.8110 270.9559 0015359  85.3000 274.9927 14.13733472 89620
NOAA-19
1 33591U 09005A   26191.62215575  .00000004  00000-0  25794-4 0  9992
2 33591  98.9511 262.5129 0013097 327.9448  32.0927 14.13477771897795
SARAL
1 39086U 13009A   26191.57362195  .00000055  00000-0  35981-4 0  9996
2 39086  98.5554  17.8451 0001417 178.9746 181.1442 14.32895010698956
LAPAN-A3
1 41603U 16040E   26191.62174132  .00002185  00000-0  70283-4 0  9990
2 41603  97.1497 187.0005 0008329 296.1610  63.8776 15.33259489558409
METOP-A
1 29499U 06044A   26191.58140228  .00000682  00000-0  85236-4 0  9990
2 29499  98.3347 299.0190 0173490 355.2233  65.3141 14.76041611 28906
METEOR M1
1 35865U 09049A   26191.34670052  .00000030  00000-0  33079-4 0  9994
2 35865  98.7400 153.6552 0001262 219.5302 140.5784 14.23161879872544
METOP-B
1 38771U 12049A   26191.55939656  .00000041  00000-0  38557-4 0  9996
2 38771  98.6492 242.5909 0001052 284.6672  75.4388 14.21445542716584
METEOR M2
1 40069U 14037A   26191.58542631 -.00000261  00000-0 -10030-3 0  9995
2 40069  98.5127 166.4962 0005427 341.8386  18.2597 14.21467259622641
CSSWE
1 38761U 12048D   26189.91130596  .00023431  00000-0  47040-3 0  9991
2 38761  64.6632  19.8417 0042891 167.5638 192.6570 15.45652064119755
MCUBED-2
1 39469U 13072H   26191.18184228  .00011431  00000-0  42349-3 0  9992
2 39469 120.4919  80.8962 0147619  43.2628 317.9934 15.18714863121324
IPEX
1 39471U 13072K   26191.37396139  .00004535  00000-0  22726-3 0  9996
2 39471 120.4694  26.5472 0168181  26.7101 334.2517 15.08368298118735
FOX-1A (AO-85)
1 40967U 15058D   26191.49255033  .00001725  00000-0  16251-3 0  9998
2 40967  64.7732 206.5515 0132011  47.5828 313.6362 14.91070925117048
OOREOS
1 37224U 10062C   26190.96510575  .00001388  00000-0  13649-3 0  9999
2 37224  71.9708  28.7386 0013680  15.3805 344.7778 14.93839355120043
STARS (KUKAI)
1 33498U 09002G   26191.09666315  .00001754  00000-0  16227-3 0  9991
2 33498  98.1555 139.3434 0010044  93.0835 267.1534 14.95909642941906
YUBELEINY-2 (RS-40)
1 38735U 12041C   26191.54323692  .00000023  00000-0  97516-4 0  9994
2 38735  82.4743  60.1241 0018052  19.7367 340.4407 12.42649801632740
AIST-1
1 39492U 13078C   26191.56873009  .00000780  00000-0  66874-4 0  9993
2 39492  82.4146 248.2238 0016185 193.7824 166.2959 14.96129163678740
VELOX-1
1 40057U 14034E   26191.57097904  .00003900  00000-0  33479-3 0  9999
2 40057  98.2537  97.9014 0006644 175.6444 184.4836 14.98105664650103
DX1
1 40071U 14037C   26191.59670064  .00001630  00000-0  17523-3 0  9994
2 40071  98.3877 154.7215 0006661 183.7200 176.3967 14.90057788649592
COSMOS-2491 (RS-46) [i]
1 39497U 13076E   26191.59136369  .00000023  00000-0  91769-4 0  9991
2 39497  82.4866 153.6308 0014161  43.2388 316.9801 12.43497655568165
COSMOS-2499 (RS-47) [i]
1 39765U 14028E   26191.59677384  .00000020  00000-0  40010-4 0  9994
2 39765  82.4473 236.6326 0230492 306.8563  51.1601 12.82903070568026
TRANSIT 5B-5
1 00965U 64083D   26191.01843087  .00000039  00000-0  41221-4 0  9997
2 00965  90.0756 203.2220 0040547 208.5557 179.2762 13.57014877 46717
EUTELSAT 1-F4 (ECS 4)
1 18351U 87078B   26191.17476771 -.00000194  00000-0  00000-0 0  9992
2 18351  13.8119 341.9646 0010145  46.6405 142.5841  0.98691218126987
BISONSAT
1 40968U 15058E   26191.40903385  .00003205  00000-0  25966-3 0  9998
2 40968  64.7732 186.1818 0120674  43.9846 317.0794 14.96059723120139
DTUSAT-2
1 40030U 14033W   26190.82392767  .00004883  00000-0  26303-3 0  9990
2 40030  98.0874 189.9933 0008890 147.9693 212.2079 15.15308119656117
ELEKTRO-L2
1 41105U 15074A   26190.92243847 -.00000112  00000-0  00000-0 0  9990
2 41105   6.7473  70.2440 0000797 224.6641 310.5088  1.00272734 38737
DOVE-3
1 39429U 13066P   26190.86547361  .00001327  00000-0  17962-3 0  9992
2 39429  97.6612  49.5534 0112356 311.6999  47.4639 14.76367563674352
FORTE
1 24920U 97047A   26190.51053289  .00000104  00000-0  65172-4 0  9995
2 24920  69.9546 323.5971 0024472 250.3649 109.4832 14.27954018501875
DMSP 5D-2 F15/USA-147
1 25991U 99067A   26191.59804502  .00000058  00000-0  51317-4 0  9993
2 25991  98.9951 230.4441 0008913 298.8138 180.6058 14.17570721373968
CASSIOPE-1
1 39265U 13055A   26191.56643429  .00026098 -52616-6  28007-3 0  9999
2 39265  80.9136  38.2828 0283959 343.5741  15.6425 15.27211165671231
D-STAR ONE PHOENIX
1 43188U 18014J   26191.15464110  .00003701  00000-0  19124-3 0  9990
2 43188  97.5356  96.0032 0006957 301.5020  58.5533 15.16898015462240
S-NET D
1 43186U 18014G   26191.15589051  .00003696  00000-0  19103-3 0  9990
2 43186  97.5340  95.8038 0006470 306.7776  53.2863 15.16889680462245
TEN-KOH
1 43677U 18084G   26191.49172808  .00002118  00000-0  16209-3 0  9999
2 43677  98.0750  24.8349 0010043  44.0929 316.1094 15.03028622419663
STARS-AO
1 43679U 18084J   26189.83824900  .00003508  00000-0  17986-3 0  9990
2 43679  98.0487  45.1453 0003689  93.4593 266.7061 15.17298526420750
LUOJIA-1 01
1 43485U 18048B   26191.58628332  .00002095  00000-0  23758-3 0  9995
2 43485  97.8097 269.3991 0010134  51.4827 308.7296 14.87375662437694
DIWATA-2B (PO-101)
1 43678U 18084H   26191.64317668  .00001424  00000-0  11789-3 0  9999
2 43678  98.1222  28.8780 0013044  98.4228 261.8473 15.00552213419731
